ONEWEB-0283             
1 49001U 21060AL  25197.78676569  .00000006  00000+0 -18940-4 0  9993
2 49001  87.9049 295.6405 0002228  99.9066 260.2317 13.16595171195484
ONEWEB-0284             
1 49002U 21060AM  25197.78043140 -.00000008  00000+0 -54607-4 0  9990
2 49002  87.9066 295.6137 0001836  91.8404 268.2937 13.16594970195467
ONEWEB-0285             
1 49075U 21075A   25197.84548814  .00000190  00000+0  49245-3 0  9992
2 49075  87.8856  57.3404 0001760  80.7496 279.3831 13.12442719191222
ONEWEB-0286             
1 49076U 21075B   25198.13230537  .00000497  00000+0  13457-2 0  9991
2 49076  87.8878  57.3077 0001602  85.3432 274.7879 13.12445990191594
ONEWEB-0287             
1 49077U 21075C   25198.21221294  .00000091  00000+0  20187-3 0  9990
2 49077  87.9055  72.5408 0001365  79.4986 280.6299 13.17648048190487
ONEWEB-0288             
1 49078U 21075D   25198.10810712 -.00000267  00000+0 -77778-3 0  9993
2 49078  87.8858  57.2805 0001701  78.8912 281.2408 13.12442766192222
ONEWEB-0289             
1 49079U 21075E   25197.63333773  .00000002  00000+0 -27500-4 0  9993
2 49079  87.9044  72.6864 0001986  66.1450 293.9890 13.17649984190015
ONEWEB-0290             
1 49080U 21075F   25197.69246842  .00000036  00000+0  60484-4 0  9995
2 49080  87.9045  72.6297 0002280  67.2710 292.8662 13.17648830189435
